{
"type": "FeatureCollection",
"name": "houseboats",
"crs": { "type": "name", "properties": { "name": "urn:ogc:def:crs:EPSG::28992" } },
"features": [
{ "type": "Feature", "properties": { "full_id": "w253600136", "osm_id": "253600136", "osm_type": "way", "building": "houseboat", "name": null, "start_date": null, "building:material": null, "roof:height": null, "roof:material": null, "source:date": "2013-11-26", "roof:shape": "flat", "roof:colour": "grey", "ref:bag": "503020000121898", "building:levels": "1", "building:colour": "#abc5d1", "addr:street": "Rotterdamseweg", "addr:postcode": "2629HJ", "addr:housenumber": "472C", "addr:city": "Delft" }, "geometry": { "type": "MultiPolygon", "coordinates": [ [ [ [ 85916.015149543964071, 443841.996096126793418 ], [ 85920.024852014350472, 443843.754318892490119 ], [ 85928.551810499368003, 443824.364143329847138 ], [ 85924.535225766230724, 443822.606008778966498 ], [ 85916.015149543964071, 443841.996096126793418 ] ] ] ] } },
{ "type": "Feature", "properties": { "full_id": "w253721841", "osm_id": "253721841", "osm_type": "way", "building": "houseboat", "name": null, "start_date": null, "building:material": null, "roof:height": null, "roof:material": null, "source:date": "2013-11-26", "roof:shape": null, "roof:colour": null, "ref:bag": "503020000112199", "building:levels": null, "building:colour": null, "addr:street": "De Nieuwe Haven", "addr:postcode": "2628AE", "addr:housenumber": "5", "addr:city": "Delft" }, "geometry": { "type": "MultiPolygon", "coordinates": [ [ [ [ 85014.043807136797113, 446118.707637967658229 ], [ 85001.135467632178916, 446150.311944285873324 ], [ 85006.475845173830749, 446152.540334031567909 ], [ 85019.384055954011274, 446120.924916562915314 ], [ 85014.043807136797113, 446118.707637967658229 ] ] ] ] } },
{ "type": "Feature", "properties": { "full_id": "w253796646", "osm_id": "253796646", "osm_type": "way", "building": "houseboat", "name": null, "start_date": null, "building:material": null, "roof:height": null, "roof:material": "tar_paper", "source:date": "2013-11-26", "roof:shape": "flat", "roof:colour": null, "ref:bag": "503020000121900", "building:levels": "2", "building:colour": "#c7c7c1", "addr:street": "Kalverbos", "addr:postcode": "2611XW", "addr:housenumber": "10", "addr:city": "Delft" }, "geometry": { "type": "MultiPolygon", "coordinates": [ [ [ [ 83871.335332807822851, 448179.102897577628028 ], [ 83875.160313309577759, 448177.724183110985905 ], [ 83868.820874016077141, 448159.254345852008555 ], [ 83864.763613464980153, 448160.714270019438118 ], [ 83871.335332807822851, 448179.102897577628028 ] ] ] ] } },
{ "type": "Feature", "properties": { "full_id": "w253796647", "osm_id": "253796647", "osm_type": "way", "building": "houseboat", "name": null, "start_date": null, "building:material": null, "roof:height": null, "roof:material": "tar_paper", "source:date": "2013-11-26", "roof:shape": "flat", "roof:colour": null, "ref:bag": "503020000121901", "building:levels": "1", "building:colour": "#282826", "addr:street": "Kalverbos", "addr:postcode": "2611XW", "addr:housenumber": "12", "addr:city": "Delft" }, "geometry": { "type": "MultiPolygon", "coordinates": [ [ [ [ 83863.115979991009226, 448140.02993530704407 ], [ 83859.259865826170426, 448141.153175578219816 ], [ 83863.117609736407758, 448155.541322206670884 ], [ 83866.898208573256852, 448154.41916214756202 ], [ 83863.115979991009226, 448140.02993530704407 ] ] ] ] } },
{ "type": "Feature", "properties": { "full_id": "w253796648", "osm_id": "253796648", "osm_type": "way", "building": "houseboat", "name": null, "start_date": null, "building:material": null, "roof:height": null, "roof:material": "tar_paper", "source:date": "2013-11-26", "roof:shape": "flat", "roof:colour": null, "ref:bag": "503020000121907", "building:levels": "1", "building:colour": "#181613", "addr:street": "Nieuwe Plantage", "addr:postcode": "2611XV", "addr:housenumber": "121", "addr:city": "Delft" }, "geometry": { "type": "MultiPolygon", "coordinates": [ [ [ [ 83848.931708791555138, 448300.209086342016235 ], [ 83853.35317122116976, 448302.148893793579191 ], [ 83858.783875433189678, 448290.621434286527801 ], [ 83854.242067306389799, 448288.427412141638342 ], [ 83848.931708791555138, 448300.209086342016235 ] ] ] ] } },
{ "type": "Feature", "properties": { "full_id": "w253796649", "osm_id": "253796649", "osm_type": "way", "building": "houseboat", "name": null, "start_date": null, "building:material": null, "roof:height": null, "roof:material": "tar_paper", "source:date": "2013-11-26", "roof:shape": "flat", "roof:colour": null, "ref:bag": "503020000121905", "building:levels": "2", "building:colour": "#464437", "addr:street": "Nieuwe Plantage", "addr:postcode": "2611XV", "addr:housenumber": "122", "addr:city": "Delft" }, "geometry": { "type": "MultiPolygon", "coordinates": [ [ [ [ 83856.495274505170528, 448285.157221998902969 ], [ 83860.524234722586698, 448287.013618992874399 ], [ 83866.608823844668223, 448273.195748144178651 ], [ 83862.849452860828023, 448271.469026530568954 ], [ 83856.495274505170528, 448285.157221998902969 ] ] ] ] } },
{ "type": "Feature", "properties": { "full_id": "w253796650", "osm_id": "253796650", "osm_type": "way", "building": "houseboat", "name": null, "start_date": null, "building:material": null, "roof:height": null, "roof:material": "tar_paper", "source:date": "2013-11-26", "roof:shape": "flat", "roof:colour": null, "ref:bag": "503020000121906", "building:levels": "2", "building:colour": "#362e25", "addr:street": "Nieuwe Plantage", "addr:postcode": "2611XV", "addr:housenumber": "123", "addr:city": "Delft" }, "geometry": { "type": "MultiPolygon", "coordinates": [ [ [ [ 83864.04884194090846, 448267.957950070442166 ], [ 83868.131930648160051, 448269.757944677723572 ], [ 83873.618807054590434, 448257.350647483835928 ], [ 83869.623830569456914, 448255.471500225248747 ], [ 83864.04884194090846, 448267.957950070442166 ] ] ] ] } },
{ "type": "Feature", "properties": { "full_id": "w253796651", "osm_id": "253796651", "osm_type": "way", "building": "houseboat", "name": null, "start_date": null, "building:material": null, "roof:height": null, "roof:material": "tar_paper", "source:date": "2013-11-26", "roof:shape": "flat", "roof:colour": null, "ref:bag": "503020000121904", "building:levels": "1", "building:colour": "#bab18a", "addr:street": "Nieuwe Plantage", "addr:postcode": "2611XV", "addr:housenumber": "124", "addr:city": "Delft" }, "geometry": { "type": "MultiPolygon", "coordinates": [ [ [ [ 83870.518202865452622, 448253.678376764873974 ], [ 83874.483185167933698, 448255.379916378820781 ], [ 83879.282666726998286, 448243.872614545864053 ], [ 83875.333944471043651, 448242.348875316500198 ], [ 83870.518202865452622, 448253.678376764873974 ] ] ] ] } },
{ "type": "Feature", "properties": { "full_id": "w253796652", "osm_id": "253796652", "osm_type": "way", "building": "houseboat", "name": null, "start_date": null, "building:material": null, "roof:height": null, "roof:material": null, "source:date": "2013-11-26", "roof:shape": null, "roof:colour": "grey", "ref:bag": "503020000121902", "building:levels": null, "building:colour": null, "addr:street": "Kalverbos", "addr:postcode": "2611XW", "addr:housenumber": "14", "addr:city": "Delft" }, "geometry": { "type": "MultiPolygon", "coordinates": [ [ [ [ 83859.297944885271136, 448138.04812472499907 ], [ 83862.593864939190098, 448137.60051371937152 ], [ 83861.35143284611695, 448127.993155901145656 ], [ 83858.137240939788171, 448128.395092321501579 ], [ 83859.297944885271136, 448138.04812472499907 ] ] ] ] } },
{ "type": "Feature", "properties": { "full_id": "w253796653", "osm_id": "253796653", "osm_type": "way", "building": "houseboat", "name": null, "start_date": null, "building:material": null, "roof:height": "0.3", "roof:material": "tar_paper", "source:date": "2013-11-26", "roof:shape": "gabled", "roof:colour": null, "ref:bag": "503020000121903", "building:levels": "1", "building:colour": "#916757", "addr:street": "Kalverbos", "addr:postcode": "2611XW", "addr:housenumber": "16", "addr:city": "Delft" }, "geometry": { "type": "MultiPolygon", "coordinates": [ [ [ [ 83857.138050688183284, 448127.174223742913455 ], [ 83861.151973640400684, 448127.005675220570993 ], [ 83860.390796218474861, 448109.747018637717701 ], [ 83856.150501369702397, 448109.929925063624978 ], [ 83857.138050688183284, 448127.174223742913455 ] ] ] ] } },
{ "type": "Feature", "properties": { "full_id": "w253796654", "osm_id": "253796654", "osm_type": "way", "building": "houseboat", "name": null, "start_date": null, "building:material": "wood", "roof:height": null, "roof:material": null, "source:date": "2013-11-26", "roof:shape": "flat", "roof:colour": "grey", "ref:bag": "503020000121899", "building:levels": "1", "building:colour": "#493a27", "addr:street": "Kalverbos", "addr:postcode": "2611XW", "addr:housenumber": "18", "addr:city": "Delft" }, "geometry": { "type": "MultiPolygon", "coordinates": [ [ [ [ 83860.905842318970826, 448108.793851830880158 ], [ 83865.129447807106772, 448095.892722360207699 ], [ 83861.717083017632831, 448094.91770258534234 ], [ 83857.759917137649609, 448107.726014979998581 ], [ 83860.905842318970826, 448108.793851830880158 ] ] ] ] } },
{ "type": "Feature", "properties": { "full_id": "w254135508", "osm_id": "254135508", "osm_type": "way", "building": "houseboat", "name": null, "start_date": null, "building:material": null, "roof:height": null, "roof:material": null, "source:date": "2013-11-26", "roof:shape": null, "roof:colour": null, "ref:bag": "503020000118284", "building:levels": null, "building:colour": null, "addr:street": "Zuidergracht", "addr:postcode": "2611WH", "addr:housenumber": "1", "addr:city": "Delft" }, "geometry": { "type": "MultiPolygon", "coordinates": [ [ [ [ 84853.094809400950908, 447292.117741657944862 ], [ 84864.209043551527429, 447299.728206350468099 ], [ 84866.866838951595128, 447295.85193778941175 ], [ 84855.752600520121632, 447288.241467190324329 ], [ 84853.094809400950908, 447292.117741657944862 ] ] ] ] } },
{ "type": "Feature", "properties": { "full_id": "w254135509", "osm_id": "254135509", "osm_type": "way", "building": "houseboat", "name": null, "start_date": null, "building:material": null, "roof:height": null, "roof:material": null, "source:date": "2013-11-26", "roof:shape": null, "roof:colour": null, "ref:bag": "503020000118293", "building:levels": null, "building:colour": null, "addr:street": "Zuidergracht", "addr:postcode": "2611WH", "addr:housenumber": "10", "addr:city": "Delft" }, "geometry": { "type": "MultiPolygon", "coordinates": [ [ [ [ 84993.945459580689203, 447384.741930890537333 ], [ 85005.39721234908211, 447391.480042858282104 ], [ 85007.55687717042747, 447387.822258949221577 ], [ 84996.098097853580839, 447381.073113386868499 ], [ 84993.945459580689203, 447384.741930890537333 ] ] ] ] } },
{ "type": "Feature", "properties": { "full_id": "w254135510", "osm_id": "254135510", "osm_type": "way", "building": "houseboat", "name": null, "start_date": null, "building:material": null, "roof:height": null, "roof:material": null, "source:date": "2013-11-26", "roof:shape": null, "roof:colour": null, "ref:bag": "503020000118294", "building:levels": null, "building:colour": null, "addr:street": "Zuidergracht", "addr:postcode": "2611WH", "addr:housenumber": "11", "addr:city": "Delft" }, "geometry": { "type": "MultiPolygon", "coordinates": [ [ [ [ 85007.020048169841175, 447392.625620809209067 ], [ 85018.599552533836686, 447399.662403966474812 ], [ 85020.693538351377356, 447396.21696450287709 ], [ 85009.107164060013019, 447389.18027285404969 ], [ 85007.020048169841175, 447392.625620809209067 ] ] ] ] } },
{ "type": "Feature", "properties": { "full_id": "w254135511", "osm_id": "254135511", "osm_type": "way", "building": "houseboat", "name": null, "start_date": null, "building:material": null, "roof:height": null, "roof:material": null, "source:date": "2013-11-26", "roof:shape": null, "roof:colour": null, "ref:bag": "503020000118295", "building:levels": null, "building:colour": null, "addr:street": "Zuidergracht", "addr:postcode": "2611WH", "addr:housenumber": "12", "addr:city": "Delft" }, "geometry": { "type": "MultiPolygon", "coordinates": [ [ [ [ 85020.95897507245536, 447400.452705678530037 ], [ 85031.259183780377498, 447406.361368512967601 ], [ 85033.437426649659756, 447402.558681587688625 ], [ 85023.144078017197899, 447396.649917917849962 ], [ 85020.95897507245536, 447400.452705678530037 ] ] ] ] } },
{ "type": "Feature", "properties": { "full_id": "w254135512", "osm_id": "254135512", "osm_type": "way", "building": "houseboat", "name": null, "start_date": null, "building:material": null, "roof:height": null, "roof:material": null, "source:date": "2013-11-26", "roof:shape": null, "roof:colour": null, "ref:bag": "503020000118296", "building:levels": null, "building:colour": null, "addr:street": "Zuidergracht", "addr:postcode": "2611WH", "addr:housenumber": "13", "addr:city": "Delft" }, "geometry": { "type": "MultiPolygon", "coordinates": [ [ [ [ 85033.128219106700271, 447407.926334122137632 ], [ 85050.030443991156062, 447416.524207292241044 ], [ 85051.914901658848976, 447412.825794587493874 ], [ 85035.012667813702137, 447404.227915032126475 ], [ 85033.128219106700271, 447407.926334122137632 ] ] ] ] } },
{ "type": "Feature", "properties": { "full_id": "w254135513", "osm_id": "254135513", "osm_type": "way", "building": "houseboat", "name": null, "start_date": null, "building:material": null, "roof:height": null, "roof:material": null, "source:date": "2013-11-26", "roof:shape": null, "roof:colour": null, "ref:bag": "503020000118285", "building:levels": null, "building:colour": null, "addr:street": "Zuidergracht", "addr:postcode": "2611WH", "addr:housenumber": "2", "addr:city": "Delft" }, "geometry": { "type": "MultiPolygon", "coordinates": [ [ [ [ 84866.069291222418542, 447301.638177991553675 ], [ 84879.257310089946259, 447310.721683329786174 ], [ 84881.410698511477676, 447307.598038599651773 ], [ 84868.222675596029148, 447298.514527583029121 ], [ 84866.069291222418542, 447301.638177991553675 ] ] ] ] } },
{ "type": "Feature", "properties": { "full_id": "w254135514", "osm_id": "254135514", "osm_type": "way", "building": "houseboat", "name": null, "start_date": null, "building:material": null, "roof:height": null, "roof:material": null, "source:date": "2013-11-26", "roof:shape": null, "roof:colour": null, "ref:bag": "503020000118286", "building:levels": null, "building:colour": null, "addr:street": "Zuidergracht", "addr:postcode": "2611WH", "addr:housenumber": "3", "addr:city": "Delft" }, "geometry": { "type": "MultiPolygon", "coordinates": [ [ [ [ 84881.24016582389595, 447312.073575796210207 ], [ 84899.034963399535627, 447324.530665798170958 ], [ 84901.114873389335116, 447321.552716317586601 ], [ 84883.320070762158139, 447309.095618921914138 ], [ 84881.24016582389595, 447312.073575796210207 ] ] ] ] } },
{ "type": "Feature", "properties": { "full_id": "w254135515", "osm_id": "254135515", "osm_type": "way", "building": "houseboat", "name": null, "start_date": null, "building:material": null, "roof:height": null, "roof:material": null, "source:date": "2013-11-26", "roof:shape": null, "roof:colour": null, "ref:bag": "503020000118287", "building:levels": null, "building:colour": null, "addr:street": "Zuidergracht", "addr:postcode": "2611WH", "addr:housenumber": "4", "addr:city": "Delft" }, "geometry": { "type": "MultiPolygon", "coordinates": [ [ [ [ 84901.002983108875924, 447325.804884026350919 ], [ 84911.450034320892883, 447332.857342759787571 ], [ 84913.871474015613785, 447329.262601741123945 ], [ 84903.424418956667068, 447322.210137948975898 ], [ 84901.002983108875924, 447325.804884026350919 ] ] ] ] } },
{ "type": "Feature", "properties": { "full_id": "w254135516", "osm_id": "254135516", "osm_type": "way", "building": "houseboat", "name": null, "start_date": null, "building:material": null, "roof:height": null, "roof:material": null, "source:date": "2013-11-26", "roof:shape": null, "roof:colour": null, "ref:bag": "503020000118288", "building:levels": null, "building:colour": null, "addr:street": "Zuidergracht", "addr:postcode": "2611WH", "addr:housenumber": "5", "addr:city": "Delft" }, "geometry": { "type": "MultiPolygon", "coordinates": [ [ [ [ 84913.169805606856244, 447334.057164415775333 ], [ 84923.619323659891961, 447341.287648795172572 ], [ 84926.048727257933933, 447337.770692296209745 ], [ 84915.599205617589178, 447330.540202841861174 ], [ 84913.169805606856244, 447334.057164415775333 ] ] ] ] } },
{ "type": "Feature", "properties": { "full_id": "w254135517", "osm_id": "254135517", "osm_type": "way", "building": "houseboat", "name": null, "start_date": null, "building:material": null, "roof:height": null, "roof:material": null, "source:date": "2013-11-26", "roof:shape": null, "roof:colour": null, "ref:bag": "503020000118289", "building:levels": null, "building:colour": null, "addr:street": "Zuidergracht", "addr:postcode": "2611WH", "addr:housenumber": "6", "addr:city": "Delft" }, "geometry": { "type": "MultiPolygon", "coordinates": [ [ [ [ 84925.079448840202531, 447342.090543658065144 ], [ 84940.300934016951942, 447352.236098525638226 ], [ 84943.118677819031291, 447348.012680163781624 ], [ 84927.890320721402531, 447337.867213190183975 ], [ 84925.079448840202531, 447342.090543658065144 ] ] ] ] } },
{ "type": "Feature", "properties": { "full_id": "w254135518", "osm_id": "254135518", "osm_type": "way", "building": "houseboat", "name": null, "start_date": null, "building:material": null, "roof:height": null, "roof:material": null, "source:date": "2013-11-26", "roof:shape": null, "roof:colour": null, "ref:bag": "503020000118290", "building:levels": null, "building:colour": null, "addr:street": "Zuidergracht", "addr:postcode": "2611WH", "addr:housenumber": "7", "addr:city": "Delft" }, "geometry": { "type": "MultiPolygon", "coordinates": [ [ [ [ 84941.61844748693693, 447353.152273874788079 ], [ 84958.965743093925994, 447364.080305161711294 ], [ 84961.67255898557778, 447359.780564989137929 ], [ 84944.32525483352947, 447348.852524310583249 ], [ 84941.61844748693693, 447353.152273874788079 ] ] ] ] } },
{ "type": "Feature", "properties": { "full_id": "w254135519", "osm_id": "254135519", "osm_type": "way", "building": "houseboat", "name": null, "start_date": null, "building:material": null, "roof:height": null, "roof:material": "tar_paper", "source:date": "2013-11-26", "roof:shape": "flat", "roof:colour": "#91917b", "ref:bag": "503020000111953", "building:levels": "1", "building:colour": "#3f4b51", "addr:street": "Kantoorgracht", "addr:postcode": "2611PE", "addr:housenumber": "73A", "addr:city": "Delft" }, "geometry": { "type": "MultiPolygon", "coordinates": [ [ [ [ 84284.456306815161952, 448120.549605379404966 ], [ 84294.604628609158681, 448127.404711885727011 ], [ 84297.023804933516658, 448123.709539012343157 ], [ 84287.033985399844823, 448116.896688429056667 ], [ 84284.456306815161952, 448120.549605379404966 ] ] ] ] } },
{ "type": "Feature", "properties": { "full_id": "w254135520", "osm_id": "254135520", "osm_type": "way", "building": "houseboat", "name": null, "start_date": null, "building:material": null, "roof:height": null, "roof:material": null, "source:date": "2013-11-26", "roof:shape": "flat", "roof:colour": "#828386", "ref:bag": "503020000111954", "building:levels": "1", "building:colour": "#534945", "addr:street": "Kantoorgracht", "addr:postcode": "2611PE", "addr:housenumber": "77", "addr:city": "Delft" }, "geometry": { "type": "MultiPolygon", "coordinates": [ [ [ [ 84338.698453713121125, 448156.722993231087457 ], [ 84352.346632099550334, 448166.388314323092345 ], [ 84353.884582958460669, 448165.910303892742377 ], [ 84353.992542584135663, 448163.839106136467308 ], [ 84340.077292224028497, 448154.222074675140902 ], [ 84338.698453713121125, 448156.722993231087457 ] ] ] ] } },
{ "type": "Feature", "properties": { "full_id": "w254135521", "osm_id": "254135521", "osm_type": "way", "building": "houseboat", "name": null, "start_date": null, "building:material": null, "roof:height": null, "roof:material": null, "source:date": "2013-11-26", "roof:shape": "flat", "roof:colour": "#7b797b", "ref:bag": "503020000111955", "building:levels": "1", "building:colour": "#3e7398", "addr:street": "Kantoorgracht", "addr:postcode": "2611PE", "addr:housenumber": "78", "addr:city": "Delft" }, "geometry": { "type": "MultiPolygon", "coordinates": [ [ [ [ 84353.411567054048646, 448167.897656619199552 ], [ 84365.944487109911279, 448176.866673911514226 ], [ 84368.22458890969574, 448173.529578128596768 ], [ 84355.58854624372907, 448164.550889052392449 ], [ 84353.411567054048646, 448167.897656619199552 ] ] ] ] } },
{ "type": "Feature", "properties": { "full_id": "w254135522", "osm_id": "254135522", "osm_type": "way", "building": "houseboat", "name": null, "start_date": null, "building:material": null, "roof:height": null, "roof:material": null, "source:date": "2013-11-26", "roof:shape": "flat", "roof:colour": "#828184", "ref:bag": "503020000111956", "building:levels": "1", "building:colour": "#4a5c73", "addr:street": "Kantoorgracht", "addr:postcode": "2611PE", "addr:housenumber": "79", "addr:city": "Delft" }, "geometry": { "type": "MultiPolygon", "coordinates": [ [ [ [ 84369.06288500908704, 448177.456747055985034 ], [ 84368.05644685695006, 448179.106710822903551 ], [ 84378.836725625747931, 448186.487139671400655 ], [ 84381.386823030974483, 448182.823535248811822 ], [ 84369.593671582420939, 448174.700797424127813 ], [ 84368.216329656119342, 448176.823360135720577 ], [ 84369.06288500908704, 448177.456747055985034 ] ] ] ] } },
{ "type": "Feature", "properties": { "full_id": "w254135523", "osm_id": "254135523", "osm_type": "way", "building": "houseboat", "name": null, "start_date": null, "building:material": null, "roof:height": null, "roof:material": null, "source:date": "2013-11-26", "roof:shape": null, "roof:colour": null, "ref:bag": "503020000118291", "building:levels": null, "building:colour": null, "addr:street": "Zuidergracht", "addr:postcode": "2611WH", "addr:housenumber": "8", "addr:city": "Delft" }, "geometry": { "type": "MultiPolygon", "coordinates": [ [ [ [ 84961.194920479378197, 447365.37313288950827 ], [ 84972.652386776258936, 447372.511670397652779 ], [ 84974.902064686582889, 447368.908244135207497 ], [ 84963.444593594205799, 447361.7697014688747 ], [ 84961.194920479378197, 447365.37313288950827 ] ] ] ] } },
{ "type": "Feature", "properties": { "full_id": "w254135524", "osm_id": "254135524", "osm_type": "way", "building": "houseboat", "name": null, "start_date": null, "building:material": null, "roof:height": null, "roof:material": null, "source:date": "2013-11-26", "roof:shape": null, "roof:colour": null, "ref:bag": "503020000111957", "building:levels": "1.5", "building:colour": null, "addr:street": "Kantoorgracht", "addr:postcode": "2611PE", "addr:housenumber": "80", "addr:city": "Delft" }, "geometry": { "type": "MultiPolygon", "coordinates": [ [ [ [ 84380.980807784857461, 448187.602875006035902 ], [ 84385.111480906445649, 448190.348432411788963 ], [ 84392.056989773758687, 448195.034776646702085 ], [ 84394.270192939948174, 448191.821040018927306 ], [ 84387.410605318014859, 448186.899803563661408 ], [ 84383.292082992978976, 448184.042799663264304 ], [ 84380.980807784857461, 448187.602875006035902 ] ] ] ] } },
{ "type": "Feature", "properties": { "full_id": "w254135525", "osm_id": "254135525", "osm_type": "way", "building": "houseboat", "name": null, "start_date": null, "building:material": null, "roof:height": null, "roof:material": null, "source:date": "2013-11-26", "roof:shape": "flat", "roof:colour": "#f9f4e7", "ref:bag": "503020000111958", "building:levels": "1", "building:colour": "#576b57", "addr:street": "Kantoorgracht", "addr:postcode": "2611PE", "addr:housenumber": "81", "addr:city": "Delft" }, "geometry": { "type": "MultiPolygon", "coordinates": [ [ [ [ 84396.444612789331586, 448197.988121829228476 ], [ 84398.560775767866289, 448194.708997910493053 ], [ 84394.270192939948174, 448191.821040018927306 ], [ 84392.056989773758687, 448195.034776646702085 ], [ 84396.444612789331586, 448197.988121829228476 ] ] ] ] } },
{ "type": "Feature", "properties": { "full_id": "w254135526", "osm_id": "254135526", "osm_type": "way", "building": "houseboat", "name": null, "start_date": "1830", "building:material": null, "roof:height": "0.5", "roof:material": null, "source:date": "2013-11-26", "roof:shape": "gabled", "roof:colour": "#595a5f", "ref:bag": "0503020000111959", "building:levels": "1", "building:colour": "#f1f6f0", "addr:street": "Kantoorgracht", "addr:postcode": "2611PE", "addr:housenumber": "82", "addr:city": "Delft" }, "geometry": { "type": "MultiPolygon", "coordinates": [ [ [ [ 84398.343876551894937, 448198.784641424950678 ], [ 84410.075148183837882, 448206.908321773924399 ], [ 84412.150513657834381, 448204.141634611994959 ], [ 84400.143890538849519, 448195.966212381084915 ], [ 84398.343876551894937, 448198.784641424950678 ] ] ] ] } },
{ "type": "Feature", "properties": { "full_id": "w254135527", "osm_id": "254135527", "osm_type": "way", "building": "houseboat", "name": "Zephyr", "start_date": null, "building:material": null, "roof:height": null, "roof:material": null, "source:date": "2013-11-26", "roof:shape": null, "roof:colour": null, "ref:bag": "503020000118292", "building:levels": null, "building:colour": null, "addr:street": "Zuidergracht", "addr:postcode": "2611WH", "addr:housenumber": "9", "addr:city": "Delft" }, "geometry": { "type": "MultiPolygon", "coordinates": [ [ [ [ 84974.599139464000473, 447373.25210967217572 ], [ 84988.288066733584856, 447381.360795855987817 ], [ 84990.669119288388174, 447377.332698355312459 ], [ 84976.980341387708904, 447369.235130665823817 ], [ 84974.599139464000473, 447373.25210967217572 ] ] ] ] } }
]
}
