{
"type": "FeatureCollection",
"name": "houseboats_delft",
"crs": { "type": "name", "properties": { "name": "urn:ogc:def:crs:OGC:1.3:CRS84" } },
"features": [
{ "type": "Feature", "properties": { "full_id": "w253721841", "osm_id": "253721841", "osm_type": "way", "building": "houseboat", "name": null, "start_date": null, "building:material": null, "roof:height": null, "roof:colour": null, "roof:shape": null, "roof:material": null, "building:levels": null, "building:colour": null, "source:date": "2013-11-26", "ref:bag": "503020000112199", "addr:street": "De Nieuwe Haven", "addr:postcode": "2628AE", "addr:housenumber": "5", "addr:city": "Delft" }, "geometry": { "type": "MultiPolygon", "coordinates": [ [ [ [ 4.368068, 51.9990307 ], [ 4.3678736, 51.9993131 ], [ 4.3679509, 51.9993338 ], [ 4.3681453, 51.9990513 ], [ 4.368068, 51.9990307 ] ] ] ] } },
{ "type": "Feature", "properties": { "full_id": "w253796646", "osm_id": "253796646", "osm_type": "way", "building": "houseboat", "name": null, "start_date": null, "building:material": null, "roof:height": null, "roof:colour": null, "roof:shape": "flat", "roof:material": "tar_paper", "building:levels": "2", "building:colour": "#c7c7c1", "source:date": "2013-11-26", "ref:bag": "503020000121900", "addr:street": "Kalverbos", "addr:postcode": "2611XW", "addr:housenumber": "10", "addr:city": "Delft" }, "geometry": { "type": "MultiPolygon", "coordinates": [ [ [ [ 4.3510025, 52.0174021 ], [ 4.3510585, 52.0173902 ], [ 4.35097, 52.0172234 ], [ 4.3509106, 52.017236 ], [ 4.3510025, 52.0174021 ] ] ] ] } },
{ "type": "Feature", "properties": { "full_id": "w253796647", "osm_id": "253796647", "osm_type": "way", "building": "houseboat", "name": null, "start_date": null, "building:material": null, "roof:height": null, "roof:colour": null, "roof:shape": "flat", "roof:material": "tar_paper", "building:levels": "1", "building:colour": "#282826", "source:date": "2013-11-26", "ref:bag": "503020000121901", "addr:street": "Kalverbos", "addr:postcode": "2611XW", "addr:housenumber": "12", "addr:city": "Delft" }, "geometry": { "type": "MultiPolygon", "coordinates": [ [ [ [ 4.3508909, 52.0170499 ], [ 4.3508345, 52.0170595 ], [ 4.3508877, 52.0171893 ], [ 4.350943, 52.0171797 ], [ 4.3508909, 52.0170499 ] ] ] ] } },
{ "type": "Feature", "properties": { "full_id": "w253796648", "osm_id": "253796648", "osm_type": "way", "building": "houseboat", "name": null, "start_date": null, "building:material": null, "roof:height": null, "roof:colour": null, "roof:shape": "flat", "roof:material": "tar_paper", "building:levels": "1", "building:colour": "#181613", "source:date": "2013-11-26", "ref:bag": "503020000121907", "addr:street": "Nieuwe Plantage", "addr:postcode": "2611XV", "addr:housenumber": "121", "addr:city": "Delft" }, "geometry": { "type": "MultiPolygon", "coordinates": [ [ [ [ 4.350651, 52.0184876 ], [ 4.350715, 52.0185056 ], [ 4.3507965, 52.0184027 ], [ 4.3507308, 52.0183824 ], [ 4.350651, 52.0184876 ] ] ] ] } },
{ "type": "Feature", "properties": { "full_id": "w253796649", "osm_id": "253796649", "osm_type": "way", "building": "houseboat", "name": null, "start_date": null, "building:material": null, "roof:height": null, "roof:colour": null, "roof:shape": "flat", "roof:material": "tar_paper", "building:levels": "2", "building:colour": "#464437", "source:date": "2013-11-26", "ref:bag": "503020000121905", "addr:street": "Nieuwe Plantage", "addr:postcode": "2611XV", "addr:housenumber": "122", "addr:city": "Delft" }, "geometry": { "type": "MultiPolygon", "coordinates": [ [ [ [ 4.3507643, 52.0183533 ], [ 4.3508226, 52.0183705 ], [ 4.3509141, 52.0182471 ], [ 4.3508597, 52.0182311 ], [ 4.3507643, 52.0183533 ] ] ] ] } },
{ "type": "Feature", "properties": { "full_id": "w253796650", "osm_id": "253796650", "osm_type": "way", "building": "houseboat", "name": null, "start_date": null, "building:material": null, "roof:height": null, "roof:colour": null, "roof:shape": "flat", "roof:material": "tar_paper", "building:levels": "2", "building:colour": "#362e25", "source:date": "2013-11-26", "ref:bag": "503020000121906", "addr:street": "Nieuwe Plantage", "addr:postcode": "2611XV", "addr:housenumber": "123", "addr:city": "Delft" }, "geometry": { "type": "MultiPolygon", "coordinates": [ [ [ [ 4.3508779, 52.0181997 ], [ 4.350937, 52.0182164 ], [ 4.3510195, 52.0181056 ], [ 4.3509617, 52.0180882 ], [ 4.3508779, 52.0181997 ] ] ] ] } },
{ "type": "Feature", "properties": { "full_id": "w253796651", "osm_id": "253796651", "osm_type": "way", "building": "houseboat", "name": null, "start_date": null, "building:material": null, "roof:height": null, "roof:colour": null, "roof:shape": "flat", "roof:material": "tar_paper", "building:levels": "1", "building:colour": "#bab18a", "source:date": "2013-11-26", "ref:bag": "503020000121904", "addr:street": "Nieuwe Plantage", "addr:postcode": "2611XV", "addr:housenumber": "124", "addr:city": "Delft" }, "geometry": { "type": "MultiPolygon", "coordinates": [ [ [ [ 4.3509751, 52.0180722 ], [ 4.3510325, 52.018088 ], [ 4.3511048, 52.0179852 ], [ 4.3510476, 52.017971 ], [ 4.3509751, 52.0180722 ] ] ] ] } },
{ "type": "Feature", "properties": { "full_id": "w253796652", "osm_id": "253796652", "osm_type": "way", "building": "houseboat", "name": null, "start_date": null, "building:material": null, "roof:height": null, "roof:colour": "grey", "roof:shape": null, "roof:material": null, "building:levels": null, "building:colour": null, "source:date": "2013-11-26", "ref:bag": "503020000121902", "addr:street": "Kalverbos", "addr:postcode": "2611XW", "addr:housenumber": "14", "addr:city": "Delft" }, "geometry": { "type": "MultiPolygon", "coordinates": [ [ [ [ 4.3508357, 52.0170316 ], [ 4.3508838, 52.017028 ], [ 4.3508677, 52.0169415 ], [ 4.3508208, 52.0169447 ], [ 4.3508357, 52.0170316 ] ] ] ] } },
{ "type": "Feature", "properties": { "full_id": "w253796653", "osm_id": "253796653", "osm_type": "way", "building": "houseboat", "name": null, "start_date": null, "building:material": null, "roof:height": "0.3", "roof:colour": null, "roof:shape": "gabled", "roof:material": "tar_paper", "building:levels": "1", "building:colour": "#916757", "source:date": "2013-11-26", "ref:bag": "503020000121903", "addr:street": "Kalverbos", "addr:postcode": "2611XW", "addr:housenumber": "16", "addr:city": "Delft" }, "geometry": { "type": "MultiPolygon", "coordinates": [ [ [ [ 4.3508065, 52.0169336 ], [ 4.350865, 52.0169326 ], [ 4.3508575, 52.0167774 ], [ 4.3507957, 52.0167785 ], [ 4.3508065, 52.0169336 ] ] ] ] } },
{ "type": "Feature", "properties": { "full_id": "w253796654", "osm_id": "253796654", "osm_type": "way", "building": "houseboat", "name": null, "start_date": null, "building:material": "wood", "roof:height": null, "roof:colour": "grey", "roof:shape": "flat", "roof:material": null, "building:levels": "1", "building:colour": "#493a27", "source:date": "2013-11-26", "ref:bag": "503020000121899", "addr:street": "Kalverbos", "addr:postcode": "2611XW", "addr:housenumber": "18", "addr:city": "Delft" }, "geometry": { "type": "MultiPolygon", "coordinates": [ [ [ [ 4.3508652, 52.0167689 ], [ 4.3509294, 52.0166535 ], [ 4.3508799, 52.0166443 ], [ 4.3508196, 52.0167589 ], [ 4.3508652, 52.0167689 ] ] ] ] } },
{ "type": "Feature", "properties": { "full_id": "w254135508", "osm_id": "254135508", "osm_type": "way", "building": "houseboat", "name": null, "start_date": null, "building:material": null, "roof:height": null, "roof:colour": null, "roof:shape": null, "roof:material": null, "building:levels": null, "building:colour": null, "source:date": "2013-11-26", "ref:bag": "503020000118284", "addr:street": "Zuidergracht", "addr:postcode": "2611WH", "addr:housenumber": "1", "addr:city": "Delft" }, "geometry": { "type": "MultiPolygon", "coordinates": [ [ [ [ 4.3654843, 52.0095558 ], [ 4.3656446, 52.0096256 ], [ 4.3656841, 52.0095911 ], [ 4.3655238, 52.0095213 ], [ 4.3654843, 52.0095558 ] ] ] ] } },
{ "type": "Feature", "properties": { "full_id": "w254135509", "osm_id": "254135509", "osm_type": "way", "building": "houseboat", "name": null, "start_date": null, "building:material": null, "roof:height": null, "roof:colour": null, "roof:shape": null, "roof:material": null, "building:levels": null, "building:colour": null, "source:date": "2013-11-26", "ref:bag": "503020000118293", "addr:street": "Zuidergracht", "addr:postcode": "2611WH", "addr:housenumber": "10", "addr:city": "Delft" }, "geometry": { "type": "MultiPolygon", "coordinates": [ [ [ [ 4.3675166, 52.010406 ], [ 4.367682, 52.010468 ], [ 4.3677142, 52.0104354 ], [ 4.3675487, 52.0103733 ], [ 4.3675166, 52.010406 ] ] ] ] } },
{ "type": "Feature", "properties": { "full_id": "w254135510", "osm_id": "254135510", "osm_type": "way", "building": "houseboat", "name": null, "start_date": null, "building:material": null, "roof:height": null, "roof:colour": null, "roof:shape": null, "roof:material": null, "building:levels": null, "building:colour": null, "source:date": "2013-11-26", "ref:bag": "503020000118294", "addr:street": "Zuidergracht", "addr:postcode": "2611WH", "addr:housenumber": "11", "addr:city": "Delft" }, "geometry": { "type": "MultiPolygon", "coordinates": [ [ [ [ 4.3677054, 52.0104785 ], [ 4.3678726, 52.0105432 ], [ 4.3679038, 52.0105125 ], [ 4.3677365, 52.0104478 ], [ 4.3677054, 52.0104785 ] ] ] ] } },
{ "type": "Feature", "properties": { "full_id": "w254135511", "osm_id": "254135511", "osm_type": "way", "building": "houseboat", "name": null, "start_date": null, "building:material": null, "roof:height": null, "roof:colour": null, "roof:shape": null, "roof:material": null, "building:levels": null, "building:colour": null, "source:date": "2013-11-26", "ref:bag": "503020000118295", "addr:street": "Zuidergracht", "addr:postcode": "2611WH", "addr:housenumber": "12", "addr:city": "Delft" }, "geometry": { "type": "MultiPolygon", "coordinates": [ [ [ [ 4.3679068, 52.0105506 ], [ 4.3680556, 52.010605 ], [ 4.3680881, 52.0105711 ], [ 4.3679394, 52.0105167 ], [ 4.3679068, 52.0105506 ] ] ] ] } },
{ "type": "Feature", "properties": { "full_id": "w254135512", "osm_id": "254135512", "osm_type": "way", "building": "houseboat", "name": null, "start_date": null, "building:material": null, "roof:height": null, "roof:colour": null, "roof:shape": null, "roof:material": null, "building:levels": null, "building:colour": null, "source:date": "2013-11-26", "ref:bag": "503020000118296", "addr:street": "Zuidergracht", "addr:postcode": "2611WH", "addr:housenumber": "13", "addr:city": "Delft" }, "geometry": { "type": "MultiPolygon", "coordinates": [ [ [ [ 4.3680825, 52.0106193 ], [ 4.3683269, 52.0106987 ], [ 4.3683551, 52.0106657 ], [ 4.3681107, 52.0105863 ], [ 4.3680825, 52.0106193 ] ] ] ] } },
{ "type": "Feature", "properties": { "full_id": "w254135513", "osm_id": "254135513", "osm_type": "way", "building": "houseboat", "name": null, "start_date": null, "building:material": null, "roof:height": null, "roof:colour": null, "roof:shape": null, "roof:material": null, "building:levels": null, "building:colour": null, "source:date": "2013-11-26", "ref:bag": "503020000118285", "addr:street": "Zuidergracht", "addr:postcode": "2611WH", "addr:housenumber": "2", "addr:city": "Delft" }, "geometry": { "type": "MultiPolygon", "coordinates": [ [ [ [ 4.3656713, 52.009643 ], [ 4.3658615, 52.0097263 ], [ 4.3658935, 52.0096985 ], [ 4.3657033, 52.0096152 ], [ 4.3656713, 52.009643 ] ] ] ] } },
{ "type": "Feature", "properties": { "full_id": "w254135514", "osm_id": "254135514", "osm_type": "way", "building": "houseboat", "name": null, "start_date": null, "building:material": null, "roof:height": null, "roof:colour": null, "roof:shape": null, "roof:material": null, "building:levels": null, "building:colour": null, "source:date": "2013-11-26", "ref:bag": "503020000118286", "addr:street": "Zuidergracht", "addr:postcode": "2611WH", "addr:housenumber": "3", "addr:city": "Delft" }, "geometry": { "type": "MultiPolygon", "coordinates": [ [ [ [ 4.3658901, 52.0097387 ], [ 4.3661467, 52.0098529 ], [ 4.3661776, 52.0098264 ], [ 4.365921, 52.0097122 ], [ 4.3658901, 52.0097387 ] ] ] ] } },
{ "type": "Feature", "properties": { "full_id": "w254135515", "osm_id": "254135515", "osm_type": "way", "building": "houseboat", "name": null, "start_date": null, "building:material": null, "roof:height": null, "roof:colour": null, "roof:shape": null, "roof:material": null, "building:levels": null, "building:colour": null, "source:date": "2013-11-26", "ref:bag": "503020000118287", "addr:street": "Zuidergracht", "addr:postcode": "2611WH", "addr:housenumber": "4", "addr:city": "Delft" }, "geometry": { "type": "MultiPolygon", "coordinates": [ [ [ [ 4.3661751, 52.0098646 ], [ 4.3663258, 52.0099293 ], [ 4.3663618, 52.0098973 ], [ 4.3662111, 52.0098326 ], [ 4.3661751, 52.0098646 ] ] ] ] } },
{ "type": "Feature", "properties": { "full_id": "w254135516", "osm_id": "254135516", "osm_type": "way", "building": "houseboat", "name": null, "start_date": null, "building:material": null, "roof:height": null, "roof:colour": null, "roof:shape": null, "roof:material": null, "building:levels": null, "building:colour": null, "source:date": "2013-11-26", "ref:bag": "503020000118288", "addr:street": "Zuidergracht", "addr:postcode": "2611WH", "addr:housenumber": "5", "addr:city": "Delft" }, "geometry": { "type": "MultiPolygon", "coordinates": [ [ [ [ 4.3663506, 52.0099403 ], [ 4.3665013, 52.0100066 ], [ 4.3665374, 52.0099753 ], [ 4.3663867, 52.009909 ], [ 4.3663506, 52.0099403 ] ] ] ] } },
{ "type": "Feature", "properties": { "full_id": "w254135517", "osm_id": "254135517", "osm_type": "way", "building": "houseboat", "name": null, "start_date": null, "building:material": null, "roof:height": null, "roof:colour": null, "roof:shape": null, "roof:material": null, "building:levels": null, "building:colour": null, "source:date": "2013-11-26", "ref:bag": "503020000118289", "addr:street": "Zuidergracht", "addr:postcode": "2611WH", "addr:housenumber": "6", "addr:city": "Delft" }, "geometry": { "type": "MultiPolygon", "coordinates": [ [ [ [ 4.3665224, 52.010014 ], [ 4.366742, 52.0101071 ], [ 4.3667839, 52.0100695 ], [ 4.3665642, 52.0099764 ], [ 4.3665224, 52.010014 ] ] ] ] } },
{ "type": "Feature", "properties": { "full_id": "w254135518", "osm_id": "254135518", "osm_type": "way", "building": "houseboat", "name": null, "start_date": null, "building:material": null, "roof:height": null, "roof:colour": null, "roof:shape": null, "roof:material": null, "building:levels": null, "building:colour": null, "source:date": "2013-11-26", "ref:bag": "503020000118290", "addr:street": "Zuidergracht", "addr:postcode": "2611WH", "addr:housenumber": "7", "addr:city": "Delft" }, "geometry": { "type": "MultiPolygon", "coordinates": [ [ [ [ 4.366761, 52.0101155 ], [ 4.3670114, 52.0102159 ], [ 4.3670517, 52.0101776 ], [ 4.3668013, 52.0100772 ], [ 4.366761, 52.0101155 ] ] ] ] } },
{ "type": "Feature", "properties": { "full_id": "w254135519", "osm_id": "254135519", "osm_type": "way", "building": "houseboat", "name": null, "start_date": null, "building:material": null, "roof:height": null, "roof:colour": "#91917b", "roof:shape": "flat", "roof:material": "tar_paper", "building:levels": "1", "building:colour": "#3f4b51", "source:date": "2013-11-26", "ref:bag": "503020000111953", "addr:street": "Kantoorgracht", "addr:postcode": "2611PE", "addr:housenumber": "73A", "addr:city": "Delft" }, "geometry": { "type": "MultiPolygon", "coordinates": [ [ [ [ 4.357032, 52.0169287 ], [ 4.3571784, 52.0169916 ], [ 4.3572144, 52.0169587 ], [ 4.3570703, 52.0168962 ], [ 4.357032, 52.0169287 ] ] ] ] } },
{ "type": "Feature", "properties": { "full_id": "w254135520", "osm_id": "254135520", "osm_type": "way", "building": "houseboat", "name": null, "start_date": null, "building:material": null, "roof:height": null, "roof:colour": "#828386", "roof:shape": "flat", "roof:material": null, "building:levels": "1", "building:colour": "#534945", "source:date": "2013-11-26", "ref:bag": "503020000111954", "addr:street": "Kantoorgracht", "addr:postcode": "2611PE", "addr:housenumber": "77", "addr:city": "Delft" }, "geometry": { "type": "MultiPolygon", "coordinates": [ [ [ [ 4.3578146, 52.0172607 ], [ 4.3580114, 52.0173493 ], [ 4.3580339, 52.0173452 ], [ 4.3580359, 52.0173266 ], [ 4.3578352, 52.0172384 ], [ 4.3578146, 52.0172607 ] ] ] ] } },
{ "type": "Feature", "properties": { "full_id": "w254135521", "osm_id": "254135521", "osm_type": "way", "building": "houseboat", "name": null, "start_date": null, "building:material": null, "roof:height": null, "roof:colour": "#7b797b", "roof:shape": "flat", "roof:material": null, "building:levels": "1", "building:colour": "#3e7398", "source:date": "2013-11-26", "ref:bag": "503020000111955", "addr:street": "Kantoorgracht", "addr:postcode": "2611PE", "addr:housenumber": "78", "addr:city": "Delft" }, "geometry": { "type": "MultiPolygon", "coordinates": [ [ [ [ 4.3580266, 52.017363 ], [ 4.3582073, 52.0174452 ], [ 4.3582412, 52.0174155 ], [ 4.358059, 52.0173332 ], [ 4.3580266, 52.017363 ] ] ] ] } },
{ "type": "Feature", "properties": { "full_id": "w254135522", "osm_id": "254135522", "osm_type": "way", "building": "houseboat", "name": null, "start_date": null, "building:material": null, "roof:height": null, "roof:colour": "#828184", "roof:shape": "flat", "roof:material": null, "building:levels": "1", "building:colour": "#4a5c73", "source:date": "2013-11-26", "ref:bag": "503020000111956", "addr:street": "Kantoorgracht", "addr:postcode": "2611PE", "addr:housenumber": "79", "addr:city": "Delft" }, "geometry": { "type": "MultiPolygon", "coordinates": [ [ [ [ 4.3582526, 52.0174509 ], [ 4.3582376, 52.0174656 ], [ 4.3583931, 52.0175333 ], [ 4.358431, 52.0175007 ], [ 4.3582609, 52.0174262 ], [ 4.3582404, 52.0174451 ], [ 4.3582526, 52.0174509 ] ] ] ] } },
{ "type": "Feature", "properties": { "full_id": "w254135523", "osm_id": "254135523", "osm_type": "way", "building": "houseboat", "name": null, "start_date": null, "building:material": null, "roof:height": null, "roof:colour": null, "roof:shape": null, "roof:material": null, "building:levels": null, "building:colour": null, "source:date": "2013-11-26", "ref:bag": "503020000118291", "addr:street": "Zuidergracht", "addr:postcode": "2611WH", "addr:housenumber": "8", "addr:city": "Delft" }, "geometry": { "type": "MultiPolygon", "coordinates": [ [ [ [ 4.3670436, 52.0102278 ], [ 4.367209, 52.0102934 ], [ 4.3672425, 52.0102613 ], [ 4.3670771, 52.0101957 ], [ 4.3670436, 52.0102278 ] ] ] ] } },
{ "type": "Feature", "properties": { "full_id": "w254135524", "osm_id": "254135524", "osm_type": "way", "building": "houseboat", "name": null, "start_date": null, "building:material": null, "roof:height": null, "roof:colour": null, "roof:shape": null, "roof:material": null, "building:levels": "1.5", "building:colour": null, "source:date": "2013-11-26", "ref:bag": "503020000111957", "addr:street": "Kantoorgracht", "addr:postcode": "2611PE", "addr:housenumber": "80", "addr:city": "Delft" }, "geometry": { "type": "MultiPolygon", "coordinates": [ [ [ [ 4.3584241, 52.0175436 ], [ 4.3584837, 52.0175688 ], [ 4.3585839, 52.0176118 ], [ 4.3586168, 52.0175832 ], [ 4.3585179, 52.0175381 ], [ 4.3584585, 52.0175119 ], [ 4.3584241, 52.0175436 ] ] ] ] } },
{ "type": "Feature", "properties": { "full_id": "w254135525", "osm_id": "254135525", "osm_type": "way", "building": "houseboat", "name": null, "start_date": null, "building:material": null, "roof:height": null, "roof:colour": "#f9f4e7", "roof:shape": "flat", "roof:material": null, "building:levels": "1", "building:colour": "#576b57", "source:date": "2013-11-26", "ref:bag": "503020000111958", "addr:street": "Kantoorgracht", "addr:postcode": "2611PE", "addr:housenumber": "81", "addr:city": "Delft" }, "geometry": { "type": "MultiPolygon", "coordinates": [ [ [ [ 4.3586472, 52.0176389 ], [ 4.3586787, 52.0176097 ], [ 4.3586168, 52.0175832 ], [ 4.3585839, 52.0176118 ], [ 4.3586472, 52.0176389 ] ] ] ] } },
{ "type": "Feature", "properties": { "full_id": "w254135526", "osm_id": "254135526", "osm_type": "way", "building": "houseboat", "name": null, "start_date": "1830", "building:material": null, "roof:height": "0.5", "roof:colour": "#595a5f", "roof:shape": "gabled", "roof:material": null, "building:levels": "1", "building:colour": "#f1f6f0", "source:date": "2013-11-26", "ref:bag": "0503020000111959", "addr:street": "Kantoorgracht", "addr:postcode": "2611PE", "addr:housenumber": "82", "addr:city": "Delft" }, "geometry": { "type": "MultiPolygon", "coordinates": [ [ [ [ 4.3586747, 52.0176463 ], [ 4.3588439, 52.0177208 ], [ 4.3588747, 52.0176962 ], [ 4.3587015, 52.0176212 ], [ 4.3586747, 52.0176463 ] ] ] ] } },
{ "type": "Feature", "properties": { "full_id": "w254135527", "osm_id": "254135527", "osm_type": "way", "building": "houseboat", "name": "Zephyr", "start_date": null, "building:material": null, "roof:height": null, "roof:colour": null, "roof:shape": null, "roof:material": null, "building:levels": null, "building:colour": null, "source:date": "2013-11-26", "ref:bag": "503020000118292", "addr:street": "Zuidergracht", "addr:postcode": "2611WH", "addr:housenumber": "9", "addr:city": "Delft" }, "geometry": { "type": "MultiPolygon", "coordinates": [ [ [ [ 4.3672372, 52.0103003 ], [ 4.3674349, 52.0103749 ], [ 4.3674704, 52.010339 ], [ 4.3672727, 52.0102645 ], [ 4.3672372, 52.0103003 ] ] ] ] } }
]
}
